{
"type": "FeatureCollection",
"name": "REI_points",
"crs": { "type": "name", "properties": { "name": "urn:ogc:def:crs:OGC:1.3:CRS84" } },
"features": [
{ "type": "Feature", "properties": { "name": "REI", "shop": "outdoor", "image": null, "service:bicycle:retail": null, "website": "https://www.rei.com/stores/tacoma", "service:bicycle:repair": "yes", "service:bicycle:rental": "yes", "phone": "+1-253-671-1938", "opening_hours": "Mo-Fr 10:00-21:00; Sa 10:00-20:00; Su 10:00-18:00", "official_name": "Recreational Equipment, Inc.", "addr:street": "South Steele Street", "addr:state": "WA", "addr:postcode": "98409", "addr:housenumber": "3825", "addr:city": "Tacoma" }, "geometry": { "type": "Point", "coordinates": [ -122.466320633178967, 47.222274744616733 ] } },
{ "type": "Feature", "properties": { "name": "REI", "shop": "outdoor", "image": null, "service:bicycle:retail": "yes", "website": "https://www.rei.com/stores/sandy", "service:bicycle:repair": "yes", "service:bicycle:rental": null, "phone": "+1-801-501-0850", "opening_hours": null, "official_name": "Recreational Equipment, Inc.", "addr:street": "West 10600 South", "addr:state": "UT", "addr:postcode": "84070", "addr:housenumber": "230", "addr:city": "Sandy" }, "geometry": { "type": "Point", "coordinates": [ -111.898281235741138, 40.564432252209201 ] } },
{ "type": "Feature", "properties": { "name": "REI", "shop": "outdoor", "image": null, "service:bicycle:retail": "yes", "website": "https://www.rei.com/stores/tualatin", "service:bicycle:repair": "yes", "service:bicycle:rental": null, "phone": "+1-503-624-8600", "opening_hours": "Mo-Sa 10:00-21:00; Su 10:00-19:00", "official_name": "Recreational Equipment, Inc.", "addr:street": "Southwest Bridgeport Road", "addr:state": "OR", "addr:postcode": "97224", "addr:housenumber": "7410", "addr:city": "Tigard" }, "geometry": { "type": "Point", "coordinates": [ -122.752383044428527, 45.393190075099824 ] } },
{ "type": "Feature", "properties": { "name": "REI", "shop": "outdoor", "image": "https://www.rei.com/assets/stores/region-images/store-images/11/live.jpg", "service:bicycle:retail": "yes", "website": "https://www.rei.com/stores/seattle", "service:bicycle:repair": "yes", "service:bicycle:rental": null, "phone": "+1-206-223-1944", "opening_hours": "Mo-Fr 09:00-21:00; Sa 09:00-21:00; Su 10:00-19:00", "official_name": "Recreational Equipment, Inc.", "addr:street": "Yale Avenue North", "addr:state": "WA", "addr:postcode": "98109", "addr:housenumber": "222", "addr:city": "Seattle" }, "geometry": { "type": "Point", "coordinates": [ -122.329703681593841, 47.62035860089226 ] } },
{ "type": "Feature", "properties": { "name": "REI", "shop": "outdoor", "image": "https://www.rei.com/assets/stores/region-images/store-images/56/live.jpg", "service:bicycle:retail": "yes", "website": "https://www.rei.com/stores/paradise-valley", "service:bicycle:repair": "yes", "service:bicycle:rental": null, "phone": "+1-602-996-5400", "opening_hours": "Mo-Fr 10:00-21:00; Sa 09:00-19:00; Su 09:00-18:00", "official_name": "Recreational Equipment, Inc.", "addr:street": "North Paradise Village Parkway West", "addr:state": "AZ", "addr:postcode": "85032", "addr:housenumber": "12634", "addr:city": "Phoenix" }, "geometry": { "type": "Point", "coordinates": [ -111.989162285295066, 33.602126154725262 ] } },
{ "type": "Feature", "properties": { "name": "REI", "shop": "outdoor", "image": null, "service:bicycle:retail": "yes", "website": "https://www.rei.com/stores/encinitas", "service:bicycle:repair": "yes", "service:bicycle:rental": null, "phone": "+1-760-944-9020", "opening_hours": null, "official_name": "Recreational Equipment, Inc.", "addr:street": "Leucadia Boulevard", "addr:state": "CA", "addr:postcode": "92024", "addr:housenumber": "1590", "addr:city": "Encinitas" }, "geometry": { "type": "Point", "coordinates": [ -117.264194921615228, 33.069724278802063 ] } },
{ "type": "Feature", "properties": { "name": "REI", "shop": "outdoor", "image": null, "service:bicycle:retail": null, "website": "https://www.rei.com/stores/issaquah", "service:bicycle:repair": "yes", "service:bicycle:rental": "yes", "phone": "+1-425-313-1660", "opening_hours": "Mo-Fr 10:00-21:00; Sa 10:00-20:00; Su 10:00-18:00", "official_name": "Recreational Equipment, Inc.", "addr:street": "Northwest Gilman Boulevard", "addr:state": "WA", "addr:postcode": "98027", "addr:housenumber": "735", "addr:city": "Issaquah" }, "geometry": { "type": "Point", "coordinates": [ -122.049045196007, 47.541512651297118 ] } },
{ "type": "Feature", "properties": { "name": "REI", "shop": "outdoor", "image": null, "service:bicycle:retail": "yes", "website": "https://www.rei.com/stores/marina", "service:bicycle:repair": "yes", "service:bicycle:rental": null, "phone": "+1-831-883-8048", "opening_hours": null, "official_name": "Recreational Equipment, Inc.", "addr:street": "General Stilwell Drive", "addr:state": "CA", "addr:postcode": "93933", "addr:housenumber": "145", "addr:city": "Marina" }, "geometry": { "type": "Point", "coordinates": [ -121.809605104751228, 36.667303420736893 ] } },
{ "type": "Feature", "properties": { "name": "REI", "shop": "outdoor", "image": null, "service:bicycle:retail": "yes", "website": "https://www.rei.com/stores/folsom", "service:bicycle:repair": "yes", "service:bicycle:rental": null, "phone": "+1-916-817-8944", "opening_hours": "Mo-Fr 10:00-21:00; Sa 10:00-19:00; Su 10:00-18:00", "official_name": "Recreational Equipment, Inc.", "addr:street": "Iron Point Road", "addr:state": "CA", "addr:postcode": "95630", "addr:housenumber": "2425", "addr:city": "Folsom" }, "geometry": { "type": "Point", "coordinates": [ -121.121357821283738, 38.64390909160371 ] } },
{ "type": "Feature", "properties": { "name": "REI", "shop": "outdoor", "image": null, "service:bicycle:retail": "yes", "website": "https://www.rei.com/stores/tucson", "service:bicycle:repair": "yes", "service:bicycle:rental": null, "phone": "+1-520-887-1938", "opening_hours": null, "official_name": "Recreational Equipment, Inc.", "addr:street": "Westmore Road", "addr:state": "AZ", "addr:postcode": "85705", "addr:housenumber": "160", "addr:city": "Tucson" }, "geometry": { "type": "Point", "coordinates": [ -110.973722711547708, 32.287610569176714 ] } },
{ "type": "Feature", "properties": { "name": "REI", "shop": "outdoor", "image": null, "service:bicycle:retail": null, "website": "https://www.rei.com/stores/silverdale", "service:bicycle:repair": "yes", "service:bicycle:rental": "yes", "phone": "+1-360-337-1938", "opening_hours": null, "official_name": "Recreational Equipment, Inc.", "addr:street": "Myhre Place Northwest", "addr:state": "WA", "addr:postcode": "98383", "addr:housenumber": "10903", "addr:city": "Silverdale" }, "geometry": { "type": "Point", "coordinates": [ -122.68894606525339, 47.662599742244851 ] } },
{ "type": "Feature", "properties": { "name": "REI", "shop": "outdoor", "image": null, "service:bicycle:retail": "yes", "website": "https://www.rei.com/stores/eugene", "service:bicycle:repair": "yes", "service:bicycle:rental": null, "phone": "+1-541-465-1800", "opening_hours": null, "official_name": "Recreational Equipment, Inc.", "addr:street": "Lawrence Street", "addr:state": "OR", "addr:postcode": "97401", "addr:housenumber": "306", "addr:city": "Eugene" }, "geometry": { "type": "Point", "coordinates": [ -123.099464843217788, 44.056378047316741 ] } },
{ "type": "Feature", "properties": { "name": "REI", "shop": "outdoor", "image": null, "service:bicycle:retail": "yes", "website": "https://www.rei.com/stores/oxnard", "service:bicycle:repair": "yes", "service:bicycle:rental": null, "phone": "+1-805-981-1938", "opening_hours": null, "official_name": "Recreational Equipment, Inc.", "addr:street": "Seaglass Way", "addr:state": "CA", "addr:postcode": "93036", "addr:housenumber": "2700", "addr:city": "Oxnard" }, "geometry": { "type": "Point", "coordinates": [ -119.176270410777676, 34.238891425213218 ] } },
{ "type": "Feature", "properties": { "name": "REI", "shop": "outdoor", "image": "https://www.rei.com/assets/stores/region-images/store-images/63/live.jpg", "service:bicycle:retail": "yes", "website": "https://www.rei.com/stores/arcadia", "service:bicycle:repair": "yes", "service:bicycle:rental": null, "phone": "+1-626-447-1062", "opening_hours": "Mo-Fr 10:00-21:00; Sa 10:00-20:00; Su 10:00-19:00", "official_name": "Recreational Equipment, Inc.", "addr:street": "Santa Anita Avenue", "addr:state": "CA", "addr:postcode": "91006", "addr:housenumber": "214", "addr:city": "Arcadia" }, "geometry": { "type": "Point", "coordinates": [ -118.031041283089976, 34.142575512388404 ] } },
{ "type": "Feature", "properties": { "name": "REI", "shop": "outdoor", "image": null, "service:bicycle:retail": null, "website": "https://www.rei.com/stores/santa-barbara", "service:bicycle:repair": "yes", "service:bicycle:rental": "yes", "phone": "+1-805-560-1938", "opening_hours": "10:00-19:00", "official_name": "Recreational Equipment, Inc.", "addr:street": "Anacapa Street", "addr:state": "CA", "addr:postcode": "93101", "addr:housenumber": "321", "addr:city": "Santa Barbara" }, "geometry": { "type": "Point", "coordinates": [ -119.693299391412026, 34.415956941507851 ] } },
{ "type": "Feature", "properties": { "name": "REI", "shop": "outdoor", "image": null, "service:bicycle:retail": null, "website": "https://www.rei.com/stores/rancho-cucamonga", "service:bicycle:repair": null, "service:bicycle:rental": null, "phone": "+1-909-646-8360", "opening_hours": "Mo-Fr 10:00-21:00; Sa 10:00-20:00; Su 10:00-19:00", "official_name": "Recreational Equipment, Inc.", "addr:street": "Foothill Blvd", "addr:state": "CA", "addr:postcode": "91739", "addr:housenumber": "12218", "addr:city": "Rancho Cucamonga" }, "geometry": { "type": "Point", "coordinates": [ -117.538854086220056, 34.107798458466917 ] } },
{ "type": "Feature", "properties": { "name": "REI", "shop": "outdoor", "image": null, "service:bicycle:retail": "yes", "website": "https://www.rei.com/stores/chandler", "service:bicycle:repair": "yes", "service:bicycle:rental": null, "phone": "+1-480-940-4006", "opening_hours": "Mo-Fr 10:00-21:00; Sa 09:00-19:00; Su 09:00-18:00", "official_name": "Recreational Equipment, Inc.", "addr:street": "North 54th Street", "addr:state": "AZ", "addr:postcode": "85226", "addr:housenumber": "870", "addr:city": "Chandler" }, "geometry": { "type": "Point", "coordinates": [ -111.970822645277238, 33.317018080385473 ] } },
{ "type": "Feature", "properties": { "name": "REI", "shop": "outdoor", "image": null, "service:bicycle:retail": "yes", "website": "https://www.rei.com/stores/spokane", "service:bicycle:repair": "yes", "service:bicycle:rental": null, "phone": "+1-509-328-9900", "opening_hours": "Mo-Fr 10:00-20:00; Sa 09:00-19:00; Su 10:00-18:00", "official_name": "Recreational Equipment, Inc.", "addr:street": "North Monroe Street", "addr:state": "WA", "addr:postcode": "99201", "addr:housenumber": "1125", "addr:city": "Spokane" }, "geometry": { "type": "Point", "coordinates": [ -117.427066325198354, 47.667779256322071 ] } },
{ "type": "Feature", "properties": { "name": "REI", "shop": "outdoor", "image": null, "service:bicycle:retail": "yes", "website": "https://www.rei.com/stores/bozeman", "service:bicycle:repair": "yes", "service:bicycle:rental": null, "phone": "+1-406-587-1938", "opening_hours": null, "official_name": "Recreational Equipment, Inc.", "addr:street": "Tschache Lane", "addr:state": "MT", "addr:postcode": "59718", "addr:housenumber": "2220", "addr:city": "Bozeman" }, "geometry": { "type": "Point", "coordinates": [ -111.065157337186463, 45.695610720896973 ] } },
{ "type": "Feature", "properties": { "name": "REI", "shop": "outdoor", "image": null, "service:bicycle:retail": "yes", "website": "https://www.rei.com/stores/beaverton", "service:bicycle:repair": "yes", "service:bicycle:rental": null, "phone": null, "opening_hours": null, "official_name": "Recreational Equipment, Inc.", "addr:street": "Southwest Cedar Hills Boulevard", "addr:state": "OR", "addr:postcode": "97005", "addr:housenumber": "2780", "addr:city": "Beaverton" }, "geometry": { "type": "Point", "coordinates": [ -122.805395485860231, 45.499430845092988 ] } },
{ "type": "Feature", "properties": { "name": "REI", "shop": "outdoor", "image": "https://www.rei.com/assets/stores/region-images/store-images/47/live.jpg", "service:bicycle:retail": "yes", "website": "https://www.rei.com/stores/boise", "service:bicycle:repair": "yes", "service:bicycle:rental": null, "phone": "+1-208-322-1141", "opening_hours": "Mo-Fr 10:00-20:00; Sa 09:00-19:00; Su 10:00-18:00", "official_name": "Recreational Equipment, Inc.", "addr:street": "West Emerald Street", "addr:state": "ID", "addr:postcode": "83704", "addr:housenumber": "8300", "addr:city": "Boise" }, "geometry": { "type": "Point", "coordinates": [ -116.285623152041012, 43.611846328376622 ] } },
{ "type": "Feature", "properties": { "name": "REI", "shop": "outdoor", "image": null, "service:bicycle:retail": "yes", "website": "https://www.rei.com/stores/flagstaff", "service:bicycle:repair": "yes", "service:bicycle:rental": null, "phone": "+1-928-213-1914", "opening_hours": "Mo-Sa 09:00-20:00; Su 10:00-18:00", "official_name": "Recreational Equipment, Inc.", "addr:street": "South Windsor Lane", "addr:state": "AZ", "addr:postcode": "86011", "addr:housenumber": "323", "addr:city": "Flagstaff" }, "geometry": { "type": "Point", "coordinates": [ -111.644448531927992, 35.191344243755367 ] } },
{ "type": "Feature", "properties": { "name": "REI", "shop": "outdoor", "image": null, "service:bicycle:retail": "yes", "website": "https://www.rei.com/stores/salem-keizer", "service:bicycle:repair": "yes", "service:bicycle:rental": null, "phone": "+1 503-393-0909", "opening_hours": "Mo-Sa 10:00-20:00; Su 11:00-18:00", "official_name": "Recreational Equipment, Inc.", "addr:street": "Ulali Drive Northeast", "addr:state": "OR", "addr:postcode": "97303", "addr:housenumber": "6035", "addr:city": "Keizer" }, "geometry": { "type": "Point", "coordinates": [ -123.000681424739895, 45.008179372741324 ] } },
{ "type": "Feature", "properties": { "name": "REI", "shop": "outdoor", "image": null, "service:bicycle:retail": "yes", "website": "https://www.rei.com/stores/bend", "service:bicycle:repair": "yes", "service:bicycle:rental": null, "phone": "+1-541-385-0594", "opening_hours": "Mo-Sa 10:00-20:00; Su 10:00-19:00", "official_name": "Recreational Equipment, Inc.", "addr:street": "Southwest Powerhouse Drive", "addr:state": "OR", "addr:postcode": "97702", "addr:housenumber": "380", "addr:city": "Bend" }, "geometry": { "type": "Point", "coordinates": [ -121.315086486158989, 44.046396434346377 ] } },
{ "type": "Feature", "properties": { "name": "REI", "shop": "outdoor", "image": null, "service:bicycle:retail": "yes", "website": "https://www.rei.com/stores/manhattan-beach", "service:bicycle:repair": "yes", "service:bicycle:rental": null, "phone": "+1-310-727-0728", "opening_hours": null, "official_name": "Recreational Equipment, Inc.", "addr:street": "Rosecrans Avenue", "addr:state": "CA", "addr:postcode": "90266", "addr:housenumber": "1800", "addr:city": "Manhattan Beach" }, "geometry": { "type": "Point", "coordinates": [ -118.379679984204373, 33.900504159765276 ] } },
{ "type": "Feature", "properties": { "name": "REI", "shop": "outdoor", "image": null, "service:bicycle:retail": "yes", "website": "https://www.rei.com/stores/burbank", "service:bicycle:repair": "yes", "service:bicycle:rental": null, "phone": "+1-818-847-9509", "opening_hours": "Mo-Sa 10:00-21:00; Su 10:00-19:00", "official_name": "Recreational Equipment, Inc.", "addr:street": "Empire Avenue", "addr:state": "CA", "addr:postcode": "91504", "addr:housenumber": "1900", "addr:city": "Burbank" }, "geometry": { "type": "Point", "coordinates": [ -118.332457319312255, 34.191386976425555 ] } },
{ "type": "Feature", "properties": { "name": "REI", "shop": "outdoor", "image": null, "service:bicycle:retail": "yes", "website": "https://www.rei.com/stores/tustin", "service:bicycle:repair": "yes", "service:bicycle:rental": null, "phone": "+1-714-505-0205", "opening_hours": null, "official_name": "Recreational Equipment, Inc.", "addr:street": "El Camino Real", "addr:state": "CA", "addr:postcode": "92782", "addr:housenumber": "2962", "addr:city": "Tustin" }, "geometry": { "type": "Point", "coordinates": [ -117.795719448308645, 33.721386098972694 ] } },
{ "type": "Feature", "properties": { "name": "REI", "shop": "outdoor", "image": null, "service:bicycle:retail": null, "website": "https://www.rei.com/stores/reno", "service:bicycle:repair": "yes", "service:bicycle:rental": "yes", "phone": "+1-775-828-9090", "opening_hours": null, "official_name": "Recreational Equipment, Inc.", "addr:street": "Harvard Way", "addr:state": "NV", "addr:postcode": "89502", "addr:housenumber": "2225", "addr:city": "Reno" }, "geometry": { "type": "Point", "coordinates": [ -119.786705137853914, 39.502226990958967 ] } },
{ "type": "Feature", "properties": { "name": "REI", "shop": "outdoor", "image": null, "service:bicycle:retail": null, "website": "https://www.rei.com/stores/clackamas", "service:bicycle:repair": "yes", "service:bicycle:rental": "yes", "phone": "+1-503-659-1156", "opening_hours": "Mo-Sa 10:00-21:00; Su 11:00-19:00", "official_name": "Recreational Equipment, Inc.", "addr:street": "Southeast 82nd Avenue", "addr:state": "OR", "addr:postcode": "97086", "addr:housenumber": "12160", "addr:city": "Clackamas" }, "geometry": { "type": "Point", "coordinates": [ -122.572620751328444, 45.434671810872921 ] } },
{ "type": "Feature", "properties": { "name": "REI", "shop": "outdoor", "image": null, "service:bicycle:retail": "yes", "website": "https://www.rei.com/stores/saratoga", "service:bicycle:repair": "yes", "service:bicycle:rental": null, "phone": "+1-408-871-8765", "opening_hours": "Mo-Fr 10:00-21:00, Sa 10:00-20:00, Su 10:00-19:00", "official_name": "Recreational Equipment, Inc.", "addr:street": "El Paseo De Saratoga", "addr:state": "CA", "addr:postcode": "95130", "addr:housenumber": "400", "addr:city": "San Jos√©" }, "geometry": { "type": "Point", "coordinates": [ -121.991904315746126, 37.288614082682543 ] } },
{ "type": "Feature", "properties": { "name": "REI", "shop": "outdoor", "image": null, "service:bicycle:retail": "yes", "website": "https://www.rei.com/stores/olympia", "service:bicycle:repair": "yes", "service:bicycle:rental": null, "phone": "+1-360-786-1938", "opening_hours": "Mo-Fr 10:00-21:00; Sa 10:00-20:00; Su 10:00-18:00", "official_name": "Recreational Equipment, Inc.", "addr:street": "Black Lake Boulevard Southwest", "addr:state": "WA", "addr:postcode": "98502", "addr:housenumber": "625", "addr:city": "Olympia" }, "geometry": { "type": "Point", "coordinates": [ -122.937893156083206, 47.041944559469933 ] } },
{ "type": "Feature", "properties": { "name": "REI", "shop": "outdoor", "image": null, "service:bicycle:retail": "yes", "website": "https://www.rei.com/stores/kennewick", "service:bicycle:repair": "yes", "service:bicycle:rental": null, "phone": "+1-509-734-8989", "opening_hours": null, "official_name": "Recreational Equipment, Inc.", "addr:street": "North Ely Street", "addr:state": "WA", "addr:postcode": "99336", "addr:housenumber": "129", "addr:city": "Kennewick" }, "geometry": { "type": "Point", "coordinates": [ -119.160627037829698, 46.210903669841635 ] } },
{ "type": "Feature", "properties": { "name": "REI", "shop": "outdoor", "image": null, "service:bicycle:retail": "yes", "website": "https://www.rei.com/stores/las-vegas-boca-park", "service:bicycle:repair": "yes", "service:bicycle:rental": null, "phone": "+1-702-951-4488", "opening_hours": null, "official_name": "Recreational Equipment, Inc.", "addr:street": "South Rampart Boulevard", "addr:state": "NV", "addr:postcode": "89145", "addr:housenumber": "710", "addr:city": "Las Vegas" }, "geometry": { "type": "Point", "coordinates": [ -115.287937454678456, 36.163141579748235 ] } }
]
}
